{
"type": "FeatureCollection",
"name": "attr2",
"crs": { "type": "name", "properties": { "name": "urn:ogc:def:crs:OGC:1.3:CRS84" } },
"features": [
{ "type": "Feature", "properties": { "Id": 0, "Name": "承德园", "Type": "公园", "Descirbe": "空" }, "geometry": { "type": "Point", "coordinates": [ 116.868535492089663, 38.344347913616595 ] } },
{ "type": "Feature", "properties": { "Id": 0, "Name": "北山", "Type": "公园", "Descirbe": "空" }, "geometry": { "type": "Point", "coordinates": [ 116.864769309024197, 38.344807170182108 ] } },
{ "type": "Feature", "properties": { "Id": 0, "Name": "松园", "Type": "公园", "Descirbe": "空" }, "geometry": { "type": "Point", "coordinates": [ 116.862890167494385, 38.34234401507311 ] } },
{ "type": "Feature", "properties": { "Id": 0, "Name": "园博园码头", "Type": "码头", "Descirbe": "空" }, "geometry": { "type": "Point", "coordinates": [ 116.861640190863667, 38.343953842179801 ] } },
{ "type": "Feature", "properties": { "Id": 0, "Name": "秦皇岛园", "Type": "公园", "Descirbe": "空" }, "geometry": { "type": "Point", "coordinates": [ 116.868003361691663, 38.343212735267734 ] } },
{ "type": "Feature", "properties": { "Id": 0, "Name": "邯郸园", "Type": "公园", "Descirbe": "空" }, "geometry": { "type": "Point", "coordinates": [ 116.864542993478068, 38.338899288023178 ] } },
{ "type": "Feature", "properties": { "Id": 1, "Name": "唐山园", "Type": "公园", "Descirbe": "空" }, "geometry": { "type": "Point", "coordinates": [ 116.865423353694624, 38.34315498070729 ] } },
{ "type": "Feature", "properties": { "Id": 0, "Name": "沧州园", "Type": "公园", "Descirbe": "空" }, "geometry": { "type": "Point", "coordinates": [ 116.866863608690096, 38.342530936748076 ] } },
{ "type": "Feature", "properties": { "Id": 0, "Name": "桃园", "Type": "公园", "Descirbe": "空" }, "geometry": { "type": "Point", "coordinates": [ 116.866627114961304, 38.343588974406671 ] } },
{ "type": "Feature", "properties": { "Id": 0, "Name": "百果园", "Type": "公园", "Descirbe": "空" }, "geometry": { "type": "Point", "coordinates": [ 116.860499287498826, 38.33764749708282 ] } },
{ "type": "Feature", "properties": { "Id": 0, "Name": "北陈屯闸所", "Type": "单位部门", "Descirbe": "空" }, "geometry": { "type": "Point", "coordinates": [ 116.861802742520339, 38.336516842067432 ] } },
{ "type": "Feature", "properties": { "Id": 0, "Name": "百草园", "Type": "公园", "Descirbe": "空" }, "geometry": { "type": "Point", "coordinates": [ 116.861638248364898, 38.335491710562025 ] } },
{ "type": "Feature", "properties": { "Id": 0, "Name": "廊坊园", "Type": "公园", "Descirbe": "空" }, "geometry": { "type": "Point", "coordinates": [ 116.866721087947951, 38.338617697246924 ] } },
{ "type": "Feature", "properties": { "Id": 0, "Name": "荷园", "Type": "公园", "Descirbe": "空" }, "geometry": { "type": "Point", "coordinates": [ 116.86591376291355, 38.338234213208786 ] } },
{ "type": "Feature", "properties": { "Id": 0, "Name": "百花园", "Type": "公园", "Descirbe": "空" }, "geometry": { "type": "Point", "coordinates": [ 116.859321256671365, 38.333679819772371 ] } },
{ "type": "Feature", "properties": { "Id": 0, "Name": "沧州园博园", "Type": "公园", "Descirbe": "空" }, "geometry": { "type": "Point", "coordinates": [ 116.860567325478286, 38.334043611474584 ] } },
{ "type": "Feature", "properties": { "Id": 0, "Name": "大运河园博园", "Type": "公园", "Descirbe": "空" }, "geometry": { "type": "Point", "coordinates": [ 116.862007822033448, 38.334016712316519 ] } },
{ "type": "Feature", "properties": { "Id": 0, "Name": "大运河沧州坊", "Type": "博物馆", "Descirbe": "空" }, "geometry": { "type": "Point", "coordinates": [ 116.865226291239154, 38.334745062300065 ] } },
{ "type": "Feature", "properties": { "Id": 0, "Name": "沧州坊码头", "Type": "码头", "Descirbe": "空" }, "geometry": { "type": "Point", "coordinates": [ 116.864368920923241, 38.333638094394715 ] } },
{ "type": "Feature", "properties": { "Id": 0, "Name": "中国大运河非物质文化遗产展示馆", "Type": "博物馆", "Descirbe": "空" }, "geometry": { "type": "Point", "coordinates": [ 116.863189474829326, 38.330023221060586 ] } },
{ "type": "Feature", "properties": { "Id": 0, "Name": "东二门", "Type": "大门", "Descirbe": "空" }, "geometry": { "type": "Point", "coordinates": [ 116.863290604540254, 38.327735103488614 ] } },
{ "type": "Feature", "properties": { "Id": 0, "Name": "沧州大运河迎宾馆", "Type": "宾馆", "Descirbe": "空" }, "geometry": { "type": "Point", "coordinates": [ 116.859704886702971, 38.323049518014145 ] } },
{ "type": "Feature", "properties": { "Id": 0, "Name": "沧州十五中", "Type": "学校", "Descirbe": "空" }, "geometry": { "type": "Point", "coordinates": [ 116.852924644185336, 38.324385551273707 ] } },
{ "type": "Feature", "properties": { "Id": 0, "Name": "工业遗产复育街", "Type": "单位", "Descirbe": "空" }, "geometry": { "type": "Point", "coordinates": [ 116.856596386036216, 38.325152843699463 ] } },
{ "type": "Feature", "properties": { "Id": 0, "Name": "东三门", "Type": "大门", "Descirbe": "空" }, "geometry": { "type": "Point", "coordinates": [ 116.861732378975802, 38.323963645321697 ] } },
{ "type": "Feature", "properties": { "Id": 0, "Name": "沧州大化工业遗存文化区", "Type": "单位", "Descirbe": "空" }, "geometry": { "type": "Point", "coordinates": [ 116.860343927330675, 38.32614297612119 ] } },
{ "type": "Feature", "properties": { "Id": 0, "Name": "沧州正业涉外旅游职业技术学校", "Type": "学校", "Descirbe": "空" }, "geometry": { "type": "Point", "coordinates": [ 116.853961605982192, 38.325069742708294 ] } },
{ "type": "Feature", "properties": { "Id": 0, "Name": "人民公园", "Type": "公园", "Descirbe": "空" }, "geometry": { "type": "Point", "coordinates": [ 116.842837743577633, 38.317881977022338 ] } },
{ "type": "Feature", "properties": { "Id": 0, "Name": "南湖公园", "Type": "公园", "Descirbe": "空" }, "geometry": { "type": "Point", "coordinates": [ 116.852674030105121, 38.301200106056946 ] } },
{ "type": "Feature", "properties": { "Id": 0, "Name": "南川老街", "Type": "街区", "Descirbe": "沧州市南川者街坐落于运河群，是城市级重要商业街区，更是沧州运河故事的最\n佳承裁地，极富水脉文的。街区总占地约284亩，整体划分为商业街区、水所文化\n公园及东入口区，建筑以传统复" }, "geometry": { "type": "Point", "coordinates": [ 116.848046664632022, 38.300936775761002 ] } },
{ "type": "Feature", "properties": { "Id": 0, "Name": "沧州给水所公园", "Type": "公园", "Descirbe": "给水所公园 将利用日寇侵华时在南川楼修建的供水所，打造一个运河记忆公园。南川楼文化街区建设，将对给水所的建筑进行保留，在周边进行绿化等景观建设，使其成为一个既可观览历史遗" }, "geometry": { "type": "Point", "coordinates": [ 116.85035664487674, 38.298451276976756 ] } },
{ "type": "Feature", "properties": { "Id": 0, "Name": "大运河百狮园", "Type": "公园", "Descirbe": "空" }, "geometry": { "type": "Point", "coordinates": [ 116.849907984195397, 38.296005139234261 ] } },
{ "type": "Feature", "properties": { "Id": 0, "Name": "长芦亭", "Type": "建筑", "Descirbe": "空" }, "geometry": { "type": "Point", "coordinates": [ 116.851906424693297, 38.30205151112817 ] } },
{ "type": "Feature", "properties": { "Id": 0, "Name": "郎吟楼", "Type": "建筑", "Descirbe": "朗吟楼位于南川楼文化街区北侧，为仿明代制式楼阁式独立建筑物，楼高31.7米，总建筑面积约3400平方米。登朗吟楼，可鉴赏沧州诗画精品，观湖景日出，听河间歌诗。朗吟楼内，将有文化展览" }, "geometry": { "type": "Point", "coordinates": [ 116.849781522742205, 38.302109590891654 ] } },
{ "type": "Feature", "properties": { "Id": 0, "Name": "北门", "Type": "大门", "Descirbe": "空" }, "geometry": { "type": "Point", "coordinates": [ 116.849194236727698, 38.302629413240233 ] } },
{ "type": "Feature", "properties": { "Id": 0, "Name": "南川楼", "Type": "建筑", "Descirbe": "南川楼位于文化街区西南方向，原南川楼村南端、无线电二厂东南侧，楼高31.8米，总建筑面积约5400平方米。首层四出抱厦，折转八角，二层探歇山平座，三层环廊用重檐四角攒尖，升贡鎏金宝" }, "geometry": { "type": "Point", "coordinates": [ 116.848535847631581, 38.299808301853083 ] } },
{ "type": "Feature", "properties": { "Id": 0, "Name": "西南门", "Type": "大门", "Descirbe": "空" }, "geometry": { "type": "Point", "coordinates": [ 116.846374572746186, 38.300577774591716 ] } },
{ "type": "Feature", "properties": { "Id": 0, "Name": "运河公园", "Type": "公园", "Descirbe": "空" }, "geometry": { "type": "Point", "coordinates": [ 116.85417303194464, 38.284237827413087 ] } },
{ "type": "Feature", "properties": { "Id": 0, "Name": "百狮园码头", "Type": "码头", "Descirbe": "空" }, "geometry": { "type": "Point", "coordinates": [ 116.847435474316157, 38.29846229264497 ] } },
{ "type": "Feature", "properties": { "Id": 0, "Name": "西门", "Type": "大门", "Descirbe": "空" }, "geometry": { "type": "Point", "coordinates": [ 116.850555352761774, 38.28374672350958 ] } }
]
}
