{
  "type" : "FeatureCollection",
  "features" : [{"type":"Feature","id":1,"geometry":{"type":"Polygon","coordinates":[[[116.86516466210668,38.342696421980357],[116.86512485812874,38.342697975263007],[116.86502782123216,38.342680591119269],[116.86493827158016,38.342646279946756],[116.86493669872965,38.342645677250829],[116.86492234260572,38.342641026608433],[116.86486648099164,38.342631480528979],[116.86483871455975,38.342621662311508],[116.86481801034253,38.342618648438673],[116.86480040592456,38.342618764176414],[116.86476849957398,38.342607853811771],[116.86474780016616,38.342602257119992],[116.86472812484119,38.342602642523019],[116.86472741727147,38.342602380452739],[116.86470604959092,38.34259446142471],[116.86468828075587,38.342586424927042],[116.86465669524755,38.342570313242859],[116.8646173282541,38.342549759355201],[116.86461354053947,38.342547491981335],[116.86458596964557,38.342530984923705],[116.8645809795056,38.342534979051855],[116.86457303950094,38.34254133367245],[116.86456266079247,38.342539070396725],[116.86455258266244,38.342536332705471],[116.86454446279693,38.34253300449874],[116.86454161795129,38.342525653666229],[116.86454813413773,38.342517909152917],[116.8645532114848,38.34251684027199],[116.86454878074447,38.342512209155011],[116.86454158485999,38.34250411187567],[116.86453669896453,38.342498196483852],[116.86450201252059,38.342451981999943],[116.86448901515557,38.342433944051663],[116.86448077797313,38.342419916898699],[116.86446399681583,38.342385855193541],[116.86444036323047,38.342338036391546],[116.86443002761304,38.342341516239941],[116.86441052127395,38.342340262190319],[116.86438955634584,38.342282645830409],[116.86438272016333,38.342263857357494],[116.86437583157847,38.342230844888128],[116.86437132108333,38.342165326147231],[116.86437751166233,38.342120552548472],[116.86437893697639,38.342092913510555],[116.86440960584754,38.342056322947755],[116.86442524296125,38.342002665014824],[116.8644258202508,38.341994266812428],[116.86443397472043,38.34197776497836],[116.86445273403984,38.341962434829526],[116.86446414666128,38.34195735987079],[116.86451367062709,38.34198291550063],[116.86451445456358,38.341983319998917],[116.86452848020811,38.341968795157655],[116.8644968553825,38.341952460867056],[116.86456824323025,38.341864929506109],[116.86453627302171,38.3418467381209],[116.86458150342865,38.341793353978616],[116.86454559212032,38.341775448126896],[116.8645403849104,38.341771956621621],[116.86453924172818,38.341767293266059],[116.86454272156203,38.341753050827108],[116.86454566379196,38.341747402127368],[116.86454713548369,38.341744575075516],[116.86454750742352,38.341743861110189],[116.86454981243637,38.341741330508242],[116.86456453533833,38.341738716052681],[116.86458158391359,38.341729844992003],[116.86459751867012,38.341703604647634],[116.86461424308693,38.341675300403992],[116.86463200882307,38.341636320173208],[116.86466068638498,38.341601323595995],[116.86467872634516,38.341566171497789],[116.86469403703694,38.341535944942301],[116.86472052372788,38.341501119691138],[116.86474042116528,38.341476473043301],[116.86475702352548,38.341441162521662],[116.86477938404984,38.34139968763369],[116.86479702883126,38.341362926995956],[116.864823452693,38.341303375293073],[116.86483418229888,38.341279220749584],[116.86483314361195,38.341255866132926],[116.86483937669256,38.341234193725825],[116.86483994514452,38.341187429885487],[116.86483775443159,38.341142004269756],[116.8648429650051,38.34111965953057],[116.86485533721594,38.341104085923867],[116.86484985685527,38.341089407033465],[116.86487847547554,38.341054563480547],[116.86487622912227,38.341027380548709],[116.86487544426878,38.340967128125627],[116.86488411710083,38.340944243243804],[116.8648801047526,38.340903457744645],[116.86488330722899,38.340891298701123],[116.86489320252903,38.340891973146796],[116.86488898759187,38.340878352443639],[116.86487512755471,38.340876538325006],[116.86488070535542,38.340859074955056],[116.86488586132157,38.340848868559725],[116.86488710026423,38.340840777413682],[116.86487722326082,38.340824098917736],[116.86487432781983,38.340802130410928],[116.86486593734462,38.340775241290807],[116.86485832256524,38.340726098711599],[116.86484848979453,38.340685624511785],[116.86483642184834,38.340663067069507],[116.86483094071531,38.340650054797791],[116.86483169439278,38.340639651443588],[116.86482843341247,38.340616814969557],[116.86482295880023,38.340600911792095],[116.86481711755398,38.340584719911249],[116.86481055324542,38.340562457991354],[116.86482193791427,38.340558136096959],[116.86481856935207,38.340546415413861],[116.86480918027172,38.340547882928966],[116.86478670613619,38.340519555081627],[116.86478773845143,38.340504478301263],[116.86478672136413,38.34049043967034],[116.86470257305157,38.340381306827304],[116.86469794042176,38.340383198728574],[116.864679051992,38.340359346047137],[116.86465781067817,38.340343498538957],[116.86463799281698,38.340324303210849],[116.8646252711373,38.340302136872253],[116.86460643913814,38.340273186183445],[116.86459365674918,38.340243701950747],[116.86459184485305,38.34023513162154],[116.86458631438946,38.340228997473204],[116.86456645109045,38.340234234753929],[116.86456358740297,38.340210632984721],[116.86455525082697,38.340182538529163],[116.86454706834044,38.340155852320947],[116.86455110880415,38.34013288553551],[116.86455325466531,38.340117511852206],[116.86456011717472,38.340095659106495],[116.86456249855294,38.340079729854054],[116.86456745531058,38.340070843926412],[116.86456230293327,38.340058240117649],[116.86455573997883,38.340046376100943],[116.86455647182629,38.340031742205696],[116.86455658931557,38.34003068831575],[116.86455659396638,38.340030647781674],[116.86455659861885,38.34003060634673],[116.86455886469597,38.340010254557733],[116.86455512322745,38.339998579380058],[116.86454573916309,38.339991245315517],[116.86455309534293,38.339981309034961],[116.86454595690275,38.339976895503398],[116.86451941220359,38.339963894018879],[116.86451020378084,38.339964206795116],[116.86450167259963,38.339965083401019],[116.8644906837258,38.339963288769908],[116.86448101853108,38.339958281339626],[116.86445820236119,38.339946710237491],[116.86443600764586,38.339941704537232],[116.86440762715957,38.339933597169683],[116.86438076092162,38.339926818537663],[116.86436626091634,38.339921118137774],[116.86434274876913,38.339920273847021],[116.86432130276265,38.339923517417496],[116.86430174633786,38.33993045316118],[116.86429226385289,38.339920099223967],[116.8642506512019,38.339931186798601],[116.86422787563683,38.339933429740768],[116.86416574300608,38.339929621855305],[116.86414302429776,38.339917343616584],[116.86414195129528,38.33989044309839],[116.86412597852546,38.339863061366501],[116.86410067946787,38.339850116183705],[116.86408751590784,38.339822765628952],[116.86408605165639,38.339792847620501],[116.86408346380932,38.339791282501189],[116.86408144307822,38.339770246491334],[116.86409461918704,38.339750464997259],[116.86410835117658,38.339738150349561],[116.86412722920096,38.339724407089804],[116.8641408473614,38.339716716489178],[116.86416971554075,38.339706248057965],[116.86418383319656,38.33969837696344],[116.86422101471503,38.339671874786426],[116.86423822981634,38.339657138322238],[116.86424433059929,38.339654804894941],[116.86425246799969,38.3396539143857],[116.86427184599984,38.339652820530247],[116.86428851395812,38.339646868006881],[116.864296414466,38.339641729514014],[116.86430254784565,38.339631354738003],[116.86431086632412,38.339626170104566],[116.8643315841005,38.33961784733043],[116.86434755029401,38.33961617677727],[116.86438255166,38.339621572901734],[116.86439827710113,38.33962620728051],[116.86441074879401,38.339631600801674],[116.86445811741595,38.339653429747877],[116.86445816389218,38.339654269418645],[116.86445858177633,38.339654675296124],[116.86445946616101,38.339655178106575],[116.86446125284301,38.339655778353645],[116.86449226597097,38.339670211102984],[116.86452210440018,38.339679730907477],[116.86456107625781,38.339702786114216],[116.86461908875175,38.339732354106424],[116.86464627113669,38.339746240965724],[116.86466548808266,38.33975880785124],[116.86468481139566,38.33977015326758],[116.86469847167042,38.33977593734182],[116.86472311303135,38.339784617788027],[116.86475531122487,38.339799076158215],[116.86476017920538,38.339807157230325],[116.86477896719408,38.339812370647302],[116.8648040998488,38.3398195138465],[116.8648123970241,38.339821445882187],[116.8648365642898,38.339822434974081],[116.86485267372818,38.33982379944964],[116.86486341718786,38.339822850594693],[116.86487855808465,38.339820369009111],[116.86489638183038,38.339819427407896],[116.86491274533105,38.339815793203414],[116.86494352695617,38.33980467670478],[116.86495696718158,38.339797769846143],[116.86497528032929,38.339795676575264],[116.8649938550289,38.3397845451072],[116.86501707399876,38.339770151502236],[116.86503859272079,38.339751717305909],[116.86506451413629,38.339728289206853],[116.86507357117176,38.339715225204607],[116.86508456502386,38.339710622661705],[116.86508799846179,38.339702166478851],[116.8650894811733,38.339692746816404],[116.86509463061519,38.339680446764909],[116.86510417248719,38.339669305788725],[116.86510569217032,38.339655984471676],[116.86511230582343,38.339638068236582],[116.86511598171256,38.339612356939803],[116.86511874086817,38.339588780567027],[116.86511165383237,38.339552328350294],[116.86509960394379,38.339535510436974],[116.86509741025698,38.33953171882618],[116.86509612587858,38.339516842072776],[116.86510584094565,38.339496179028693],[116.86510417308796,38.339443835273059],[116.86509951107374,38.33942090079649],[116.86509718658246,38.33940561204659],[116.86509779941602,38.339392179778912],[116.86510194508145,38.339377130897795],[116.86510462681194,38.339357678648945],[116.86510787613391,38.339349807823083],[116.86510554591455,38.339338225273416],[116.86510908747971,38.339331280884892],[116.86512528569584,38.339317403491904],[116.86513118009084,38.339310462709506],[116.86516856482358,38.339289429686275],[116.86519063666252,38.339280421969569],[116.86520446385094,38.339276964082806],[116.86523240746698,38.339272595415316],[116.86526064074927,38.339270544128908],[116.8653000439848,38.339271283969829],[116.86531563193272,38.339269448769592],[116.86532828412578,38.339265526468139],[116.8653353470541,38.339262523848618],[116.86534211344933,38.339260910040103],[116.86535945987356,38.339262551534731],[116.86537533649454,38.339264190438662],[116.86537617680298,38.339286657467262],[116.86539010375412,38.339286150945298],[116.86540666280735,38.339286169951059],[116.86548761749354,38.339286977228888],[116.86548706254085,38.339279043471855],[116.86555814028922,38.339279873605058],[116.86555780278159,38.33930838776844],[116.86560094902036,38.339308293082944],[116.86560100049219,38.33930829314194],[116.86560105196399,38.339308293200922],[116.86569179049324,38.339308092658399],[116.86569300010636,38.339270597752318],[116.86578251321455,38.339271822724911],[116.86578320352606,38.339259724740366],[116.86580863698538,38.339257527779139],[116.86583392194478,38.339253982930884],[116.86586050728481,38.339248653126006],[116.86586991026827,38.33924636664522],[116.86592827600333,38.33922958699052],[116.86595714221529,38.339217368064169],[116.86596784395793,38.339213551569493],[116.86597659885906,38.339211009391327],[116.86600612347429,38.339193430087754],[116.86601911220235,38.339179406565179],[116.86602885223792,38.339170483697622],[116.8660372869894,38.33916538806443],[116.86606873913954,38.339157000790571],[116.86608981936367,38.339149112462543],[116.86611868081974,38.33913944567464],[116.86613909229443,38.339142531955837],[116.86615334426159,38.339146887746068],[116.86616338382305,38.339150472081194],[116.86618057318385,38.339143599989768],[116.86619449910587,38.339149231945321],[116.86621103147027,38.339146953571287],[116.86621816181383,38.339146450908423],[116.86623921902246,38.339151069399335],[116.86626577238714,38.339163096658488],[116.86629167534073,38.339176143863426],[116.86632048377884,38.339195320336515],[116.86635380657007,38.33922649892282],[116.8663761088557,38.339259452282541],[116.8663896771555,38.339282950895758],[116.8663883374053,38.339306176674327],[116.86639219216495,38.339324814800428],[116.86639668140866,38.339351111101401],[116.86639436493127,38.339377398747885],[116.86637682182712,38.339400606965796],[116.86635795395324,38.339438873627387],[116.86632861247583,38.339475673432162],[116.86631050264474,38.339501015170669],[116.86629779806046,38.33952038034667],[116.86629101089149,38.339533294783905],[116.86628755905961,38.339548104864711],[116.86628467940871,38.339565879482109],[116.86628941513018,38.33959372737678],[116.86629673596234,38.339617808049503],[116.8663158308767,38.339647122724365],[116.86632672177207,38.339645591036138],[116.86633999665277,38.339666333537394],[116.86627835012627,38.33969744710695],[116.86625101963246,38.33965943948364],[116.86620081281619,38.339676691657075],[116.86621693129163,38.339706102949116],[116.86626699168677,38.339767885413096],[116.86631377642536,38.339807782727917],[116.86634939489538,38.339831010990267],[116.86639495688335,38.339858497302956],[116.86643887709209,38.339877489163868],[116.86646217227086,38.339837018584035],[116.86641991537216,38.339816068318719],[116.86646105722771,38.339767127302984],[116.86648879092294,38.339783090883863],[116.86649954831776,38.339791985774177],[116.86652617822369,38.339799228504425],[116.86655863310025,38.33980739675102],[116.86657884263427,38.339812184481687],[116.86659143747411,38.339820839118154],[116.8665971227624,38.339825578791491],[116.86661550676931,38.339828486111394],[116.8666759476374,38.339859799945287],[116.86673283620624,38.339895274463927],[116.86674526991898,38.339929465150057],[116.86676217764551,38.339962769950844],[116.86680578671833,38.340010592976427],[116.8668304110745,38.340032492424072],[116.86683164277895,38.340033228037179],[116.86683168505448,38.340033253309727],[116.86683172618783,38.340033277680106],[116.86686195894761,38.340051330440183],[116.86689212200645,38.340069351582585],[116.86693094340153,38.340085142061966],[116.86699453963388,38.340105644287064],[116.86700755871301,38.340114420977947],[116.86703127824332,38.340142659726588],[116.86705019070054,38.340186927723472],[116.8670689918477,38.340233282021025],[116.86709258605067,38.340279439951004],[116.86712132316188,38.34031735437641],[116.86714808673568,38.340366787869428],[116.86715700189572,38.340383649765869],[116.86715447341381,38.340447239778896],[116.86714579998244,38.340478392174631],[116.86712316736735,38.340523813953347],[116.86712946351572,38.340568654109596],[116.86713253137337,38.340588651639528],[116.86716158290488,38.340614191068347],[116.86718945236888,38.340618702692765],[116.86722669419686,38.340617098961623],[116.86722550297841,38.340670629498568],[116.86719168521076,38.340698862512888],[116.86721655271823,38.340716833429966],[116.86722555170415,38.340721015578048],[116.86724779978995,38.340722710089182],[116.8672774740583,38.340719823034981],[116.86732040122631,38.340712361002161],[116.86736491984641,38.340704065641027],[116.86740300674411,38.340698844889573],[116.86742648595194,38.340699092149357],[116.86744493220473,38.340699993157301],[116.86746001468904,38.340706394716314],[116.86747062716729,38.340711469636048],[116.86748207727801,38.340716986930836],[116.86748820525261,38.3407293214497],[116.86749462802406,38.340732410605533],[116.86750998199845,38.34074299523455],[116.86751834825156,38.340753571967774],[116.86752868284606,38.340757986225803],[116.86753369242123,38.340758238724689],[116.86753722331933,38.340767113644119],[116.86753643618873,38.340778511545643],[116.86752848806167,38.340786432983656],[116.86752518884883,38.340787890478509],[116.8675064559194,38.340797417705858],[116.86746757532327,38.340809449121139],[116.86743873348671,38.340825031415285],[116.86742868333165,38.340827726287486],[116.8674191635335,38.340830005553457],[116.86740224761627,38.340828529710805],[116.86738851420924,38.340821851299204],[116.86735893585234,38.340806620061471],[116.86734518726166,38.340807645022664],[116.867331702141,38.340809712594435],[116.86731847517392,38.340815110096308],[116.86731131481862,38.340828217856014],[116.86731102780045,38.340840084777511],[116.86731283486519,38.340864029417041],[116.86730991278523,38.340871937608284],[116.86729825750342,38.340885456486028],[116.86727866928636,38.340899799695613],[116.86726065313616,38.340922056178691],[116.86725281400346,38.340937920749205],[116.8672359820301,38.340938697168852],[116.86723795509569,38.340958790750044],[116.86724178492577,38.340999402994179],[116.86724447410677,38.341031997046876],[116.86725181764471,38.341079614879696],[116.86726243005401,38.341130509295851],[116.86726954404645,38.341166026294388],[116.86729904239958,38.341277225128678],[116.86731097997394,38.341314664646973],[116.86732042249805,38.341339736811989],[116.8673288595288,38.341362956537559],[116.86733909583334,38.341389946663917],[116.86734728508752,38.341411049948967],[116.86735723147626,38.34143519657961],[116.86737692166858,38.341480431133576],[116.86739428403855,38.3415131714995],[116.86740935579213,38.341543121060404],[116.86742056636207,38.341565285384632],[116.86745925964424,38.34162928774272],[116.86748772514186,38.34167353492407],[116.86751220868402,38.341698433081213],[116.86754728914552,38.341729506097629],[116.86757059721381,38.341747915703976],[116.86759316156717,38.341760789481519],[116.86761223041114,38.341764171278783],[116.867626284983,38.341764187144165],[116.86764102948393,38.341780447488333],[116.86764685402065,38.341794276208155],[116.86765321510644,38.341811206349618],[116.8676579628537,38.341839727147018],[116.86766015655046,38.341854313009065],[116.8676629281028,38.34187067244779],[116.86766627810329,38.341896025086889],[116.86765467924592,38.341899224522734],[116.86761376238057,38.341912938324569],[116.86757925925768,38.341937894183417],[116.86755611285828,38.34196572764538],[116.86753241047765,38.341994214510827],[116.86751672613455,38.342022307737992],[116.8674997653541,38.342059122706182],[116.86748952871235,38.342081838447541],[116.86747595005642,38.342127584016836],[116.86747507223582,38.342144796969379],[116.86747263819174,38.342186805684328],[116.86747104995268,38.342217244499622],[116.86746608561151,38.34225677384547],[116.86746457205416,38.342268823157042],[116.86745637500646,38.342285196328049],[116.86745522716595,38.342286121131522],[116.86745518936422,38.342286150817728],[116.86745515270799,38.342286179604336],[116.86742004623432,38.342314438245992],[116.86738752142359,38.342343335815066],[116.86739601973342,38.342349957856705],[116.86736603200308,38.342363797438885],[116.86732680336912,38.342371132142041],[116.86727508565009,38.342374251010874],[116.8672286318313,38.342368068863934],[116.86721151046447,38.342356129083413],[116.86718962750523,38.342350901742286],[116.86717627888041,38.342341955336678],[116.86716749863118,38.342323117077434],[116.86716973460315,38.342288198041928],[116.86717021127538,38.342285868014883],[116.86717021935483,38.342285828385485],[116.86717022743591,38.342285787855211],[116.86717225530623,38.34227587871122],[116.86717570858458,38.342278415886661],[116.86718970832155,38.342269050016682],[116.86721878488807,38.342227989470544],[116.86722313449428,38.342205087813781],[116.86722274204189,38.342188226568631],[116.86721465886282,38.342147837437821],[116.86720551080428,38.342099902261253],[116.86719207976176,38.342080988468211],[116.86717468349711,38.342059895467038],[116.86715779259823,38.342045192951467],[116.86713671459582,38.342033307234317],[116.86710927983827,38.342020966574573],[116.86709537436357,38.342020081470515],[116.86707083255533,38.34202458235972],[116.86706068660948,38.342028895965875],[116.86704048792969,38.342044724886527],[116.86702049395383,38.342062452182198],[116.86699721339478,38.342088449395007],[116.86698461081981,38.342101298713992],[116.86696393194428,38.342116357728209],[116.866957197951,38.342125146245039],[116.86683689592158,38.342127969981391],[116.86683839494313,38.342212018037031],[116.86681581214373,38.342219211113729],[116.86678978601573,38.34222593542259],[116.86677519385789,38.34223334837295],[116.86675545833681,38.342239179844995],[116.86674029392185,38.342246141702638],[116.86671539472701,38.342262098554833],[116.86669850946049,38.342272435836357],[116.86668963844795,38.342277603989245],[116.86668333792304,38.342283901159021],[116.86668065189561,38.342285272842645],[116.86666662180511,38.342292439578273],[116.86666616997829,38.342292439064551],[116.86640356552675,38.342292371721442],[116.86639362751674,38.342284946187739],[116.8663792836598,38.342274228335626],[116.86635698975068,38.342262362714429],[116.86633023091279,38.342251972139508],[116.86632225430864,38.342246598328934],[116.86632427310003,38.342233600084498],[116.86631143606927,38.342217099414967],[116.86630093749984,38.342187316187399],[116.86628226909031,38.342178885222104],[116.86626469987981,38.342178575105386],[116.86623894416262,38.342175699862644],[116.86621714977815,38.342168404029032],[116.86620307654138,38.342165434000052],[116.86617313899076,38.342169325858748],[116.86614974030435,38.342177902522977],[116.86613107437613,38.342188023281928],[116.86611608049803,38.342193039360765],[116.86610235924007,38.342193977722886],[116.86609705014591,38.342193579779767],[116.86609925790566,38.342035693819106],[116.86609058449157,38.342035419958663],[116.86609004961466,38.341992923210263],[116.86624073199209,38.341992214118143],[116.86624256959682,38.341924727064061],[116.86616944277698,38.341926443585017],[116.86616839175326,38.341892770330837],[116.86612951720714,38.341891753013755],[116.86597088629401,38.341896834741533],[116.8659706474911,38.341871238770132],[116.86595336470485,38.341833477702949],[116.86593430663271,38.34180504407891],[116.86588482787735,38.341775235161542],[116.86580562002243,38.341767644757006],[116.86572701667606,38.341755274936325],[116.86572001479529,38.341751361943494],[116.86571245864548,38.341748670763927],[116.86570455963232,38.341747276691358],[116.86569653875408,38.341747218729083],[116.8656886204186,38.341748498498767],[116.86568102616475,38.341751080195081],[116.86567396846429,38.341754891587406],[116.86566764477728,38.341759826040757],[116.8656622320276,38.341765745499202],[116.86562979634439,38.341817932864757],[116.86560078157636,38.341872096855603],[116.86557530768131,38.341928013537718],[116.86554417932051,38.341984567298994],[116.86548111310488,38.342091833485469],[116.86546197280903,38.342177802873323],[116.86547878888607,38.342282894968093],[116.86547894952894,38.342283860891733],[116.86547895631881,38.342283900538071],[116.86547896310704,38.342283941085292],[116.86549349202353,38.342371426529546],[116.86549628567066,38.342468373927851],[116.86547536125973,38.342528764488925],[116.86547192232894,38.342580343815946],[116.86544789072525,38.342618060256456],[116.86540640280042,38.342650638780341],[116.86538567537796,38.342658292256338],[116.865343008813,38.34267007808257],[116.86528368620061,38.342683763626859],[116.86523656408633,38.342688827362842],[116.86516466210668,38.342696421980357]]]},"properties":{"OBJECTID":1,"Shape_Length":1645.2008311627721,"Shape_Area":70313.084898329835,"Elevation":5}}]
}