{
  "type" : "FeatureCollection",
  "features" : [{"type":"Feature","id":1,"geometry":{"type":"Point","coordinates":[116.85193077180728,38.302050214759603]},"properties":{"OBJECTID":1,"Name":"南湖公园","Type":"公园","Describe":"南湖公园占地约21.6公顷，其中水域面积约13公顷，是沧州市区最大的自然水域。\u200B园区划分为七大景观区域，包括油松树阵、观景廊、运动健身广场、亲水平台、九河下梢广场、碧水方舟湖心岛和广场鸽观赏区。"}},{"type":"Feature","id":2,"geometry":{"type":"Point","coordinates":[116.85491105524544,38.284517198375241]},"properties":{"OBJECTID":2,"Name":"大运河湾公园","Type":"公园","Describe":"公园保留了原有的自然地貌，种植了大量绿植，形成了良好的生态系统。公园结合大运河文化带建设，融入了运河文化元素，提升了整体文化氛围。"}},{"type":"Feature","id":3,"geometry":{"type":"Point","coordinates":[116.84309240745829,38.317858313169886]},"properties":{"OBJECTID":3,"Name":"人民公园","Type":"公园","Describe":"沧州市人民公园以“回归自然”为设计理念，融合北方大气与南方园林的精致，打造出兼具生态与文化的城市公园。公园引入智慧导览系统，游客可通过扫码获取手绘全景地图，提升游园体验。"}},{"type":"Feature","id":4,"geometry":{"type":"Point","coordinates":[116.84707115095979,38.315484970080462]},"properties":{"OBJECTID":4,"Name":"胜利公园","Type":"公园","Describe":"沧州市胜利公园位于河北省沧州市运河区新华桥北大运河西岸，毗邻人民公园，是一座以纪念青沧战役和沧州解放为主题的红色教育公园。公园建于1987年，旨在纪念沧州解放四十周年，弘扬革命精神，传承红色文化。\u200B"}}]
}